QIANFAN-41              
1 62242U 24232F   25308.10032689  .00000083  00000+0  10973-3 0  9999
2 62242  89.0042  45.0872 0012206 305.4666  54.5346 13.50969970 94030
QIANFAN-42              
1 62243U 24232G   25308.13693091  .00000697  00000+0  29505-3 0  9995
2 62243  89.0036  41.7575 0014432 202.6067 157.4492 14.24424175 95876
QIANFAN-43              
1 62244U 24232H   25308.09621145  .00000189  00000+0  27367-3 0  9992
2 62244  89.0046  45.1512 0013773 311.1482  48.8480 13.50985525 62649
QIANFAN-44              
1 62245U 24232J   25308.08387444  .00000181  00000+0  26184-3 0  9991
2 62245  89.0045  44.9639 0011952 308.2364  51.7711 13.50972535 94113
QIANFAN-45              
1 62246U 24232K   25308.12504899  .00000174  00000+0  25128-3 0  9991
2 62246  89.0048  45.1049 0012586 307.5942  52.4066 13.50983186 94040
QIANFAN-46              
1 62247U 24232L   25308.14970130  .00000136  00000+0  19299-3 0  9999
2 62247  89.0044  45.1729 0012762 313.6724  46.3368 13.50978246 94008
QIANFAN-47              
1 62248U 24232M   25308.15381723  .00000170  00000+0  24473-3 0  9993
2 62248  89.0041  45.1071 0013160 312.5966  47.4075 13.50970358 94031
QIANFAN-48              
1 62249U 24232N   25308.11688726  .00000188  00000+0  27205-3 0  9998
2 62249  89.0044  45.1112 0015443 315.1780  44.8123 13.50981743 94035
